GLOBALSTAR M068         
1 32266U 07048D   24160.27075213 -.00000068  00000+0  20081-3 0  9996
2 32266  51.9905   2.0479 0001606  61.4017 110.4417 12.62791325770318
GLOBALSTAR M079         
1 37188U 10054A   24160.52877760 -.00000081  00000+0  12448-3 0  9993
2 37188  52.0016 197.2623 0000395 182.2294 335.5316 12.62270937629268
GLOBALSTAR M074         
1 37189U 10054B   24160.87525622 -.00000084  00000+0  10881-3 0  9991
2 37189  51.9993 195.5892 0000122 147.5707  24.5663 12.62269695629989
GLOBALSTAR M076         
1 37190U 10054C   24160.57409946 -.00000072  00000+0  17876-3 0  9998
2 37190  52.0006 196.6409 0000421 235.9449 248.5101 12.62262295629592
GLOBALSTAR M077         
1 37191U 10054D   24160.57013503 -.00000121  00000+0 -98620-4 0  9992
2 37191  52.0044 153.4013 0000217   2.3382 163.2139 12.62273806629967
GLOBALSTAR M075         
1 37192U 10054E   24160.48368350 -.00000056  00000+0  26488-3 0  9994
2 37192  51.9939 239.3815 0000559 145.7955 227.4247 12.62275388628813
GLOBALSTAR M073         
1 37193U 10054F   24160.75630531 -.00000115  00000+0 -64471-4 0  9990
2 37193  52.0031 152.0860 0000131 325.0087 205.9975 12.62266195630723
GLOBALSTAR M083         
1 37739U 11033A   24160.61094289 -.00000116  00000+0 -68607-4 0  9999
2 37739  51.9855 101.7673 0000559  67.0739 104.7583 12.62270122600032
GLOBALSTAR M088         
1 37740U 11033B   24160.86642880 -.00000079  00000+0  13633-3 0  9999
2 37740  51.9754   6.7963 0000948  96.4279 277.0874 12.62264034595546
GLOBALSTAR M091         
1 37741U 11033C   24160.20210521 -.00000087  00000+0  94998-4 0  9994
2 37741  52.0013 331.7083 0001151 110.5280  61.4839 12.62263488595951
GLOBALSTAR M085         
1 37742U 11033D   24160.62876784 -.00000076  00000+0  15505-3 0  9994
2 37742  51.9873 281.7764 0000956 129.2593 243.9218 12.62271753597011
GLOBALSTAR M081         
1 37743U 11033E   24160.76405123 -.00000080  00000+0  13228-3 0  9990
2 37743  51.9967 283.9225 0000900 141.1836   6.0350 12.62265692597069
GLOBALSTAR M089         
1 37744U 11033F   24160.64541706 -.00000059  00000+0  24949-3 0  9994
2 37744  51.9923 238.5843 0000286 191.0869 315.4284 12.62264718597769
GLOBALSTAR M084         
1 38040U 11080A   24160.87123799 -.00000107  00000+0 -15807-4 0  9998
2 38040  52.0005 104.9812 0000548  14.1184  20.7095 12.62263209575801
GLOBALSTAR M080         
1 38041U 11080B   24160.63714890 -.00000110  00000+0 -36040-4 0  9997
2 38041  52.0054 107.1690 0000471 340.5147 190.1709 12.62273415575618
GLOBALSTAR M082         
1 38042U 11080C   24160.77914800 -.00000079  00000+0  14055-3 0  9990
2 38042  52.0089  62.1453 0001247  75.7283 319.7345 12.62270023576511
GLOBALSTAR M092         
1 38043U 11080D   24160.54079733 -.00000105  00000+0 -73506-5 0  9992
2 38043  52.0065 153.2261 0000292  21.1866 131.9152 12.62262866574767
GLOBALSTAR M090         
1 38044U 11080E   24160.43945424 -.00000078  00000+0  14401-3 0  9995
2 38044  51.9901  57.4691 0000936  75.8223  95.5338 12.62263819576419
GLOBALSTAR M086         
1 38045U 11080F   24160.14753792 -.00000086  00000+0  98265-4 0  9999
2 38045  51.9915  58.8785 0000432 147.1411  17.9470 12.62263037576324
GLOBALSTAR M097         
1 39072U 13005A   24160.21741481 -.00000091  00000+0  69878-4 0  9993
2 39072  52.0064 332.8380 0000997 114.2587 245.8384 12.62263635523583
GLOBALSTAR M093         
1 39073U 13005B   24160.50752773 -.00000087  00000+0  94946-4 0  9991
2 39073  51.9826 325.8547 0001091 119.2603 240.8373 12.62259998523574
GLOBALSTAR M094         
1 39074U 13005C   24160.58662504 -.00000060  00000+0  24274-3 0  9999
2 39074  51.9953 239.6219 0000686 151.0810 209.0095 12.62266742525190
GLOBALSTAR M096         
1 39075U 13005D   24160.59976270 -.00000073  00000+0  17225-3 0  9991
2 39075  52.0082 287.8037 0001053 130.2514 229.8445 12.62266491524119
GLOBALSTAR M078         
1 39076U 13005E   24160.89041342 -.00000195  00000+0 -50938-3 0  9992
2 39076  51.9895  11.9383 0001736  79.5992 280.5070 12.62275030522983
GLOBALSTAR M095         
1 39077U 13005F   24160.28273746 -.00000078  00000+0  14522-3 0  9999
2 39077  51.9819  11.1670 0001465  95.9936 264.1097 12.62263732522556
GLOBALSTAR M087         
1 52888U 22064A   24160.66512993 -.00000060  00000+0  12948-3 0  9992
2 52888  51.9751 238.0984 0009035 345.0974  14.9659 13.37576174 96388
